JY1SAT (JO-97)          
1 43803U 18099AX  26068.68634132  .00017774  00000+0  60804-3 0  9996
2 43803  97.4249 131.3625 0004723 256.6795 103.3919 15.30302628398390
STARLINK-32858          
1 62962U 25029Q   26068.76334364  .00029084  00000+0  99017-3 0  9992
2 62962  53.1590 231.7783 0001051  98.2042 261.9078 15.30202815 61314
